     2.100          NAVIGATION                              RINEX VERSION / TYPE
fic2rin                                 11/03/2012 00:18:26 PGM / RUN BY / DATE
                                                            END OF HEADER
 1 12 11  3  0  0  0.0  .280638225377D-03  .170530256582D-11  .000000000000D+00
     .630000000000D+02 -.122187500000D+02  .491377610707D-08 -.603950011434D+00
    -.583007931709D-06  .137248996180D-02  .581517815590D-05  .515370564651D+04
     .518400000000D+06  .260770320892D-07  .229141243560D+01  .372529029846D-08
     .959931220097D+00  .267375000000D+03  .501841637159D+00 -.815105380982D-08
    -.532165023952D-10  .100000000000D+01  .171200000000D+04  .000000000000D+00
     .240000000000D+01  .000000000000D+00  .838190317154D-08  .630000000000D+02
     .511206000000D+06  .400000000000D+01
 3 12 11  3  0  0  0.0  .123103149235D-03  .511590769747D-11  .000000000000D+00
     .530000000000D+02 -.471875000000D+01  .514021411055D-08  .574564680262D+00
    -.253319740295D-06  .158785653766D-01  .923313200474D-05  .515375163841D+04
     .518400000000D+06 -.270083546638D-06  .110730158340D+01 -.409781932831D-07
     .932350720218D+00  .190187500000D+03  .125031069385D+01 -.848035324075D-08
     .341799951626D-09  .100000000000D+01  .171200000000D+04  .000000000000D+00
     .240000000000D+01  .000000000000D+00 -.465661287308D-08  .530000000000D+02
     .511206000000D+06  .400000000000D+01
 4 12 11  3  0  0  0.0  .347485765815D-04  .112549969344D-10  .000000000000D+00
     .750000000000D+02 -.126250000000D+02  .539129599769D-08 -.260338709935D+01
    -.955536961555D-06  .103791919537D-01  .566989183426D-05  .515367735291D+04
     .518400000000D+06  .143423676491D-06  .229094204892D+01 -.128522515297D-06
     .937504753236D+00  .256000000000D+03  .925344338866D+00 -.826355849609D-08
     .400016662300D-10  .100000000000D+01  .171200000000D+04  .000000000000D+00
     .240000000000D+01  .000000000000D+00 -.651925802231D-08  .750000000000D+02
     .511206000000D+06  .400000000000D+01
 6 12 11  3  0  0  0.0  .468313694000D-03 -.102318153949D-10  .000000000000D+00
     .360000000000D+02  .228125000000D+01  .491520473801D-08  .245892819904D+01
     .763684511185D-07  .738083990291D-02  .875443220139D-05  .515368649292D+04
     .518400000000D+06 -.745058059692D-08  .118519763795D+01  .100582838058D-06
     .939062680530D+00  .196843750000D+03 -.419209711550D+00 -.808640825993D-08
     .420374653149D-09  .100000000000D+01  .171200000000D+04  .000000000000D+00
     .240000000000D+01  .000000000000D+00 -.512227416039D-08  .360000000000D+02
     .511206000000D+06  .400000000000D+01
 7 12 11  3  0  0  0.0  .140906311572D-03  .454747350886D-11  .000000000000D+00
     .920000000000D+02 -.281875000000D+02  .433053752713D-08 -.975408195564D+00
    -.153295695782D-05  .605782109778D-02  .212527811527D-05  .515371664810D+04
     .518400000000D+06  .894069671631D-07 -.830945678920D+00 -.130385160446D-06
     .975745660043D+00  .347312500000D+03 -.294310396663D+01 -.823069998455D-08
    -.169649923743D-09  .100000000000D+01  .171200000000D+04  .000000000000D+00
     .240000000000D+01  .000000000000D+00 -.111758708954D-07  .920000000000D+02
     .511206000000D+06  .400000000000D+01
 8 12 11  3  0  0  0.0  .267103314400D-05  .227373675443D-12  .000000000000D+00
     .340000000000D+02 -.415312500000D+02  .380265839599D-08 -.160588574379D+01
    -.227428972721D-05  .127678413410D-01  .258721411228D-05  .515363579178D+04
     .518400000000D+06 -.149011611938D-07 -.744165362366D+00 -.178813934326D-06
     .998217336925D+00  .347906250000D+03 -.290578190550D+01 -.790247202682D-08
    -.432160858377D-10  .100000000000D+01  .171200000000D+04  .000000000000D+00
     .240000000000D+01  .000000000000D+00 -.419095158577D-08  .340000000000D+02
     .511206000000D+06  .400000000000D+01
 9 12 11  3  0  0  0.0  .196966808289D-03  .272848410532D-11  .000000000000D+00
     .870000000000D+02 -.154062500000D+02  .420588947789D-08 -.154474594414D+01
    -.560656189919D-06  .172254409408D-01  .263750553131D-05  .515365696716D+04
     .518400000000D+06 -.894069671631D-07 -.855534461587D+00  .488013029099D-06
     .984407548251D+00  .340437500000D+03  .164786818062D+01 -.815891127998D-08
    -.204294223960D-09  .100000000000D+01  .171200000000D+04  .000000000000D+00
     .340000000000D+01  .000000000000D+00 -.558793544769D-08  .870000000000D+02
     .511206000000D+06  .400000000000D+01
10 12 11  3  0  0  0.0 -.572316348553D-04 -.125055521494D-11  .000000000000D+00
     .800000000000D+02  .253437500000D+02  .476055543910D-08  .281351492786D+01
     .124983489513D-05  .118876417400D-01  .104475766420D-04  .515373579979D+04
     .518400000000D+06 -.316649675369D-07 -.292447031970D+01 -.167638063431D-06
     .945235463365D+00  .169343750000D+03  .769598964132D+00 -.778389565907D-08
    -.373229832235D-09  .100000000000D+01  .171200000000D+04  .000000000000D+00
     .340000000000D+01  .000000000000D+00 -.279396772385D-08  .800000000000D+02
     .511206000000D+06  .400000000000D+01
11 12 11  3  0  0  0.0 -.319237820804D-03 -.386535248253D-11  .000000000000D+00
     .530000000000D+02  .606250000000D+01  .670563645953D-08 -.802571417247D+00
     .596046447754D-06  .137103633024D-01  .501982867718D-05  .515367024422D+04
     .518400000000D+06 -.204890966415D-07  .200964685025D+01  .262632966042D-06
     .888037739319D+00  .245750000000D+03  .111398267321D+01 -.924609942287D-08
     .183221917643D-09  .100000000000D+01  .171200000000D+04  .000000000000D+00
     .240000000000D+01  .000000000000D+00 -.116415321827D-07  .530000000000D+02
     .511206000000D+06  .400000000000D+01
12 12 11  3  0  0  0.0  .995416194201D-04  .204636307899D-11  .000000000000D+00
     .110000000000D+02 -.892812500000D+02  .377122851538D-08 -.129748007936D+01
    -.457651913166D-05  .400938012172D-02  .853650271893D-05  .515368885803D+04
     .518400000000D+06 -.111758708954D-07  .226007867163D+00 -.158324837685D-06
     .982054871693D+00  .228281250000D+03  .144652578961D+00 -.764138972313D-08
    -.375015620906D-10  .100000000000D+01  .171200000000D+04  .000000000000D+00
     .240000000000D+01  .000000000000D+00 -.121071934700D-07  .110000000000D+02
     .511206000000D+06  .400000000000D+01
13 12 11  3  0  0  0.0  .169991981238D-03 -.272848410532D-11  .000000000000D+00
     .510000000000D+02  .108593750000D+03  .396802242692D-08  .136463507485D+01
     .541470944881D-05  .478571001440D-02  .580959022045D-05  .515360293198D+04
     .518400000000D+06  .726431608200D-07 -.180026890184D+01 -.819563865662D-07
     .983774884458D+00  .276062500000D+03  .208044945642D+01 -.787961393183D-08
     .101075638777D-09  .100000000000D+01  .171200000000D+04  .000000000000D+00
     .240000000000D+01  .000000000000D+00 -.111758708954D-07  .510000000000D+02
     .511206000000D+06  .400000000000D+01
15 12 11  3  0  0  0.0 -.987206585705D-04 -.909494701773D-12  .000000000000D+00
     .450000000000D+02  .104687500000D+03  .494056293713D-08  .118016444343D+01
     .564940273762D-05  .485989439767D-02  .648759305477D-05  .515366369438D+04
     .518400000000D+06  .521540641785D-07 -.192121863401D+01  .279396772385D-07
     .943349507414D+00  .240687500000D+03  .483589939119D-01 -.835034782550D-08
    -.571452374714D-11  .100000000000D+01  .171200000000D+04  .000000000000D+00
     .240000000000D+01  .000000000000D+00 -.102445483208D-07  .450000000000D+02
     .511206000000D+06  .400000000000D+01
16 12 11  3  0  0  0.0 -.248967204243D-03 -.568434188608D-12  .000000000000D+00
     .380000000000D+02 -.865000000000D+02  .376872841124D-08  .274577298330D+01
    -.450201332569D-05  .656244659331D-02  .910274684429D-05  .515377902603D+04
     .518400000000D+06 -.745058059692D-07  .244256165381D+00  .260770320892D-07
     .982820339189D+00  .217000000000D+03  .266164354014D-01 -.760781689611D-08
    -.525021869268D-10  .100000000000D+01  .171200000000D+04  .000000000000D+00
     .240000000000D+01  .000000000000D+00 -.977888703346D-08  .380000000000D+02
     .511206000000D+06  .400000000000D+01
17 12 11  3  0  0  0.0  .821761786938D-04 -.341060513165D-11  .000000000000D+00
     .400000000000D+02 -.653125000000D+01  .438089676765D-08  .183452298384D+01
    -.266358256340D-06  .766940705944D-02  .879913568497D-05  .515375636101D+04
     .518400000000D+06 -.206753611565D-06  .128294255038D+01 -.353902578354D-07
     .963610419568D+00  .208906250000D+03 -.229299632091D+01 -.791032949697D-08
     .551094383865D-09  .100000000000D+01  .171200000000D+04  .000000000000D+00
     .240000000000D+01  .000000000000D+00 -.107102096081D-07  .400000000000D+02
     .511206000000D+06  .400000000000D+01
18 12 11  3  0  0  0.0  .222730450332D-03  .181898940355D-11  .000000000000D+00
     .460000000000D+02  .182187500000D+02  .511092717635D-08 -.298911704998D+01
     .869855284691D-06  .136168280151D-01  .971555709839D-05  .515374586487D+04
     .518400000000D+06  .108033418655D-06 -.293813003053D+01 -.221654772758D-06
     .929024638451D+00  .172687500000D+03 -.213843862646D+01 -.801533387083D-08
    -.321084803042D-09  .100000000000D+01  .171200000000D+04  .000000000000D+00
     .240000000000D+01  .000000000000D+00 -.107102096081D-07  .460000000000D+02
     .511206000000D+06  .400000000000D+01
19 12 11  3  0  0  0.0 -.318646896631D-03 -.352429196937D-11  .000000000000D+00
     .830000000000D+02  .743750000000D+01  .451768817985D-08  .103606575598D+01
     .420957803726D-06  .865651434287D-02  .835210084915D-05  .515363306808D+04
     .518400000000D+06 -.670552253723D-07  .133551982030D+01  .165775418282D-06
     .960892684969D+00  .218406250000D+03  .268800037926D+00 -.797104631179D-08
     .408945605655D-09  .100000000000D+01  .171200000000D+04  .000000000000D+00
     .340000000000D+01  .000000000000D+00 -.144354999065D-07  .830000000000D+02
     .511206000000D+06  .400000000000D+01
